[
  {
    "COMMENT": "GENERATED VIA SPACETRACK.ORG API",
    "ORIGINATOR": "18 SPCS",
    "NORAD_CAT_ID": "43682",
    "OBJECT_NAME": "H-2A R/B",
    "OBJECT_TYPE": "ROCKET BODY",
    "CLASSIFICATION_TYPE": "U",
    "INTLDES": "18084L",
    "EPOCH": "2023-05-16 22:03:04",
    "EPOCH_MICROSECONDS": "556736",
    "MEAN_MOTION": "15.08228413",
    "ECCENTRICITY": "0.0049978",
    "INCLINATION": "98.8963",
    "RA_OF_ASC_NODE": "156.1314",
    "ARG_OF_PERICENTER": "246.0264",
    "MEAN_ANOMALY": "113.5723",
    "EPHEMERIS_TYPE": "0",
    "ELEMENT_SET_NO": "999",
    "REV_AT_EPOCH": "24950",
    "BSTAR": "0.00027284",
    "MEAN_MOTION_DOT": "0.0000426",
    "MEAN_MOTION_DDOT": "0",
    "FILE": "3909742",
    "TLE_LINE0": "0 H-2A R/B",
    "TLE_LINE1": "1 43682U 18084L   23136.91880274  .00004260  00000-0  27284-3 0  9996",
    "TLE_LINE2": "2 43682  98.8963 156.1314 0049978 246.0264 113.5723 15.08228413249506",
    "OBJECT_ID": "2018-084L",
    "OBJECT_NUMBER": "43682",
    "SEMIMAJOR_AXIS": "6919.750",
    "PERIOD": "95.476",
    "APOGEE": "576.199",
    "PERIGEE": "507.032",
    "DECAYED": "0"
  },
  {
    "COMMENT": "GENERATED VIA SPACETRACK.ORG API",
    "ORIGINATOR": "18 SPCS",
    "NORAD_CAT_ID": "43682",
    "OBJECT_NAME": "H-2A R/B",
    "OBJECT_TYPE": "ROCKET BODY",
    "CLASSIFICATION_TYPE": "U",
    "INTLDES": "18084L",
    "EPOCH": "2023-05-17 18:45:01",
    "EPOCH_MICROSECONDS": "252800",
    "MEAN_MOTION": "15.08235544",
    "ECCENTRICITY": "0.0049983",
    "INCLINATION": "98.8961",
    "RA_OF_ASC_NODE": "157.1293",
    "ARG_OF_PERICENTER": "243.0878",
    "MEAN_ANOMALY": "116.5234",
    "EPHEMERIS_TYPE": "0",
    "ELEMENT_SET_NO": "999",
    "REV_AT_EPOCH": "24963",
    "BSTAR": "0.00024958",
    "MEAN_MOTION_DOT": "0.0000389",
    "MEAN_MOTION_DDOT": "0",
    "FILE": "3910418",
    "TLE_LINE0": "0 H-2A R/B",
    "TLE_LINE1": "1 43682U 18084L   23137.78126450  .00003890  00000-0  24958-3 0  9994",
    "TLE_LINE2": "2 43682  98.8961 157.1293 0049983 243.0878 116.5234 15.08235544249632",
    "OBJECT_ID": "2018-084L",
    "OBJECT_NUMBER": "43682",
    "SEMIMAJOR_AXIS": "6919.729",
    "PERIOD": "95.476",
    "APOGEE": "576.180",
    "PERIGEE": "507.007",
    "DECAYED": "0"
  },
  {
    "COMMENT": "GENERATED VIA SPACETRACK.ORG API",
    "ORIGINATOR": "18 SPCS",
    "NORAD_CAT_ID": "43682",
    "OBJECT_NAME": "H-2A R/B",
    "OBJECT_TYPE": "ROCKET BODY",
    "CLASSIFICATION_TYPE": "U",
    "INTLDES": "18084L",
    "EPOCH": "2023-05-17 21:56:05",
    "EPOCH_MICROSECONDS": "329248",
    "MEAN_MOTION": "15.08236768",
    "ECCENTRICITY": "0.0049988",
    "INCLINATION": "98.8961",
    "RA_OF_ASC_NODE": "157.2829",
    "ARG_OF_PERICENTER": "242.6389",
    "MEAN_ANOMALY": "116.9743",
    "EPHEMERIS_TYPE": "0",
    "ELEMENT_SET_NO": "999",
    "REV_AT_EPOCH": "24965",
    "BSTAR": "0.00024904",
    "MEAN_MOTION_DOT": "0.00003881",
    "MEAN_MOTION_DDOT": "0",
    "FILE": "3910633",
    "TLE_LINE0": "0 H-2A R/B",
    "TLE_LINE1": "1 43682U 18084L   23137.91395057  .00003881  00000-0  24904-3 0  9991",
    "TLE_LINE2": "2 43682  98.8961 157.2829 0049988 242.6389 116.9743 15.08236768249655",
    "OBJECT_ID": "2018-084L",
    "OBJECT_NUMBER": "43682",
    "SEMIMAJOR_AXIS": "6919.725",
    "PERIOD": "95.476",
    "APOGEE": "576.180",
    "PERIGEE": "507.000",
    "DECAYED": "0"
  },
  {
    "COMMENT": "GENERATED VIA SPACETRACK.ORG API",
    "ORIGINATOR": "18 SPCS",
    "NORAD_CAT_ID": "43682",
    "OBJECT_NAME": "H-2A R/B",
    "OBJECT_TYPE": "ROCKET BODY",
    "CLASSIFICATION_TYPE": "U",
    "INTLDES": "18084L",
    "EPOCH": "2023-05-18 12:15:53",
    "EPOCH_MICROSECONDS": "602848",
    "MEAN_MOTION": "15.08240961",
    "ECCENTRICITY": "0.0050002",
    "INCLINATION": "98.896",
    "RA_OF_ASC_NODE": "157.9739",
    "ARG_OF_PERICENTER": "240.587",
    "MEAN_ANOMALY": "119.0358",
    "EPHEMERIS_TYPE": "0",
    "ELEMENT_SET_NO": "999",
    "REV_AT_EPOCH": "24974",
    "BSTAR": "0.00022045",
    "MEAN_MOTION_DOT": "0.00003426",
    "MEAN_MOTION_DDOT": "0",
    "FILE": "3911221",
    "TLE_LINE0": "0 H-2A R/B",
    "TLE_LINE1": "1 43682U 18084L   23138.51103707  .00003426  00000-0  22045-3 0  9996",
    "TLE_LINE2": "2 43682  98.8960 157.9739 0050002 240.5870 119.0358 15.08240961249748",
    "OBJECT_ID": "2018-084L",
    "OBJECT_NUMBER": "43682",
    "SEMIMAJOR_AXIS": "6919.712",
    "PERIOD": "95.475",
    "APOGEE": "576.177",
    "PERIGEE": "506.977",
    "DECAYED": "0"
  },
  {
    "COMMENT": "GENERATED VIA SPACETRACK.ORG API",
    "ORIGINATOR": "18 SPCS",
    "NORAD_CAT_ID": "43682",
    "OBJECT_NAME": "H-2A R/B",
    "OBJECT_TYPE": "ROCKET BODY",
    "CLASSIFICATION_TYPE": "U",
    "INTLDES": "18084L",
    "EPOCH": "2023-05-18 21:49:05",
    "EPOCH_MICROSECONDS": "715552",
    "MEAN_MOTION": "15.08243799",
    "ECCENTRICITY": "0.0050022",
    "INCLINATION": "98.8958",
    "RA_OF_ASC_NODE": "158.4345",
    "ARG_OF_PERICENTER": "239.2364",
    "MEAN_ANOMALY": "120.393",
    "EPHEMERIS_TYPE": "0",
    "ELEMENT_SET_NO": "999",
    "REV_AT_EPOCH": "24980",
    "BSTAR": "0.00021647",
    "MEAN_MOTION_DOT": "0.00003362",
    "MEAN_MOTION_DDOT": "0",
    "FILE": "3911388",
    "TLE_LINE0": "0 H-2A R/B",
    "TLE_LINE1": "1 43682U 18084L   23138.90909393  .00003362  00000-0  21647-3 0  9990",
    "TLE_LINE2": "2 43682  98.8958 158.4345 0050022 239.2364 120.3930 15.08243799249809",
    "OBJECT_ID": "2018-084L",
    "OBJECT_NUMBER": "43682",
    "SEMIMAJOR_AXIS": "6919.703",
    "PERIOD": "95.475",
    "APOGEE": "576.182",
    "PERIGEE": "506.955",
    "DECAYED": "0"
  },
  {
    "COMMENT": "GENERATED VIA SPACETRACK.ORG API",
    "ORIGINATOR": "18 SPCS",
    "NORAD_CAT_ID": "43682",
    "OBJECT_NAME": "H-2A R/B",
    "OBJECT_TYPE": "ROCKET BODY",
    "CLASSIFICATION_TYPE": "U",
    "INTLDES": "18084L",
    "EPOCH": "2023-05-19 01:00:09",
    "EPOCH_MICROSECONDS": "742752",
    "MEAN_MOTION": "15.0824465",
    "ECCENTRICITY": "0.0050028",
    "INCLINATION": "98.8957",
    "RA_OF_ASC_NODE": "158.5879",
    "ARG_OF_PERICENTER": "238.7882",
    "MEAN_ANOMALY": "120.8434",
    "EPHEMERIS_TYPE": "0",
    "ELEMENT_SET_NO": "999",
    "REV_AT_EPOCH": "24982",
    "BSTAR": "0.00021122",
    "MEAN_MOTION_DOT": "0.00003279",
    "MEAN_MOTION_DDOT": "0",
    "FILE": "3911480",
    "TLE_LINE0": "0 H-2A R/B",
    "TLE_LINE1": "1 43682U 18084L   23139.04177943  .00003279  00000-0  21122-3 0  9999",
    "TLE_LINE2": "2 43682  98.8957 158.5879 0050028 238.7882 120.8434 15.08244650249829",
    "OBJECT_ID": "2018-084L",
    "OBJECT_NUMBER": "43682",
    "SEMIMAJOR_AXIS": "6919.701",
    "PERIOD": "95.475",
    "APOGEE": "576.184",
    "PERIGEE": "506.948",
    "DECAYED": "0"
  },
  {
    "COMMENT": "GENERATED VIA SPACETRACK.ORG API",
    "ORIGINATOR": "18 SPCS",
    "NORAD_CAT_ID": "43682",
    "OBJECT_NAME": "H-2A R/B",
    "OBJECT_TYPE": "ROCKET BODY",
    "CLASSIFICATION_TYPE": "U",
    "INTLDES": "18084L",
    "EPOCH": "2023-05-19 20:06:33",
    "EPOCH_MICROSECONDS": "716736",
    "MEAN_MOTION": "15.08251161",
    "ECCENTRICITY": "0.0050073",
    "INCLINATION": "98.8955",
    "RA_OF_ASC_NODE": "159.5091",
    "ARG_OF_PERICENTER": "236.0951",
    "MEAN_ANOMALY": "123.5506",
    "EPHEMERIS_TYPE": "0",
    "ELEMENT_SET_NO": "999",
    "REV_AT_EPOCH": "24994",
    "BSTAR": "0.00022605",
    "MEAN_MOTION_DOT": "0.00003516",
    "MEAN_MOTION_DDOT": "0",
    "FILE": "3912278",
    "TLE_LINE0": "0 H-2A R/B",
    "TLE_LINE1": "1 43682U 18084L   23139.83789024  .00003516  00000-0  22605-3 0  9996",
    "TLE_LINE2": "2 43682  98.8955 159.5091 0050073 236.0951 123.5506 15.08251161249940",
    "OBJECT_ID": "2018-084L",
    "OBJECT_NUMBER": "43682",
    "SEMIMAJOR_AXIS": "6919.681",
    "PERIOD": "95.475",
    "APOGEE": "576.195",
    "PERIGEE": "506.897",
    "DECAYED": "0"
  },
  {
    "COMMENT": "GENERATED VIA SPACETRACK.ORG API",
    "ORIGINATOR": "18 SPCS",
    "NORAD_CAT_ID": "43682",
    "OBJECT_NAME": "H-2A R/B",
    "OBJECT_TYPE": "ROCKET BODY",
    "CLASSIFICATION_TYPE": "U",
    "INTLDES": "18084L",
    "EPOCH": "2023-05-20 18:24:01",
    "EPOCH_MICROSECONDS": "233216",
    "MEAN_MOTION": "15.08263291",
    "ECCENTRICITY": "0.0050126",
    "INCLINATION": "98.8952",
    "RA_OF_ASC_NODE": "160.5838",
    "ARG_OF_PERICENTER": "232.9995",
    "MEAN_ANOMALY": "126.6637",
    "EPHEMERIS_TYPE": "0",
    "ELEMENT_SET_NO": "999",
    "REV_AT_EPOCH": "25008",
    "BSTAR": "0.00033818",
    "MEAN_MOTION_DOT": "0.00005308",
    "MEAN_MOTION_DDOT": "0",
    "FILE": "3912999",
    "TLE_LINE0": "0 H-2A R/B",
    "TLE_LINE1": "1 43682U 18084L   23140.76668094  .00005308  00000-0  33818-3 0  9992",
    "TLE_LINE2": "2 43682  98.8952 160.5838 0050126 232.9995 126.6637 15.08263291250083",
    "OBJECT_ID": "2018-084L",
    "OBJECT_NUMBER": "43682",
    "SEMIMAJOR_AXIS": "6919.644",
    "PERIOD": "95.474",
    "APOGEE": "576.194",
    "PERIGEE": "506.823",
    "DECAYED": "0"
  }
]